$$SOE
2459580.500000000, A.D. 2022-Jan-01 00:00:00.0000, -3.861346384996578E+08, -3.500007383274566E+08, -6.852161759562790E+05,
2459587.500000000, A.D. 2022-Jan-08 00:00:00.0000, -3.793321311840672E+08, -3.559726331333159E+08, -1.883833265715301E+06,
2459594.500000000, A.D. 2022-Jan-15 00:00:00.0000, -3.723988558812621E+08, -3.618217582986748E+08, -3.081799364722371E+06,
2459601.500000000, A.D. 2022-Jan-22 00:00:00.0000, -3.653364788545526E+08, -3.675453977266506E+08, -4.278695737823918E+06,
2459608.500000000, A.D. 2022-Jan-29 00:00:00.0000, -3.581467173533023E+08, -3.731408335534933E+08, -5.474099041584462E+06,
2459615.500000000, A.D. 2022-Feb-05 00:00:00.0000, -3.508313429390828E+08, -3.786053473355168E+08, -6.667581128615111E+06,
2459622.500000000, A.D. 2022-Feb-12 00:00:00.0000, -3.433921826633205E+08, -3.839362223525450E+08, -7.858709139509439E+06,
2459629.500000000, A.D. 2022-Feb-19 00:00:00.0000, -3.358311194213608E+08, -3.891307446611962E+08, -9.047045567620873E+06,
2459636.500000000, A.D. 2022-Feb-26 00:00:00.0000, -3.281500927937210E+08, -3.941862036228845E+08, -1.023214823591581E+07,
2459643.500000000, A.D. 2022-Mar-05 00:00:00.0000, -3.203511002143095E+08, -3.990998925255554E+08, -1.141357025149420E+07,
2459650.500000000, A.D. 2022-Mar-12 00:00:00.0000, -3.124361982429186E+08, -4.038691093673474E+08, -1.259085996415308E+07,
2459657.500000000, A.D. 2022-Mar-19 00:00:00.0000, -3.044075038702836E+08, -4.084911577766153E+08, -1.376356093389443E+07,
2459664.500000000, A.D. 2022-Mar-26 00:00:00.0000, -2.962671958326133E+08, -4.129633480762953E+08, -1.493121191053367E+07,
2459671.500000000, A.D. 2022-Apr-02 00:00:00.0000, -2.880175158665500E+08, -4.172829985500531E+08, -1.609334683673969E+07,
2459678.500000000, A.D. 2022-Apr-09 00:00:00.0000, -2.796607696305229E+08, -4.214474369070481E+08, -1.724949489957595E+07,
2459685.500000000, A.D. 2022-Apr-16 00:00:00.0000, -2.711993269329472E+08, -4.254540012935140E+08, -1.839918061038324E+07,
2459692.500000000, A.D. 2022-Apr-23 00:00:00.0000, -2.626356225336915E+08, -4.293000397697759E+08, -1.954192370858353E+07,
2459699.500000000, A.D. 2022-Apr-30 00:00:00.0000, -2.539721593866374E+08, -4.329829105013961E+08, -2.067723890201181E+07,
2459706.500000000, A.D. 2022-May-07 00:00:00.0000, -2.452115112590069E+08, -4.364999846423324E+08, -2.180463588672665E+07,
2459713.500000000, A.D. 2022-May-14 00:00:00.0000, -2.363563233373409E+08, -4.398486488760046E+08, -2.292361952612081E+07,
2459720.500000000, A.D. 2022-May-21 00:00:00.0000, -2.274093128499991E+08, -4.430263068582028E+08, -2.403368994151530E+07,
2459727.500000000, A.D. 2022-May-28 00:00:00.0000, -2.183732701826150E+08, -4.460303805224336E+08, -2.513434254907483E+07,
2459734.500000000, A.D. 2022-Jun-04 00:00:00.0000, -2.092510602060048E+08, -4.488583115623704E+08, -2.622506809443933E+07,
2459741.500000000, A.D. 2022-Jun-11 00:00:00.0000, -2.000456236678054E+08, -4.515075630916160E+08, -2.730535269862789E+07,
2459748.500000000, A.D. 2022-Jun-18 00:00:00.0000, -1.907599786049377E+08, -4.539756214706171E+08, -2.837467791821325E+07,
2459755.500000000, A.D. 2022-Jun-25 00:00:00.0000, -1.813972217434234E+08, -4.562599983374774E+08, -2.943252082575423E+07,
2459762.500000000, A.D. 2022-Jul-02 00:00:00.0000, -1.719605297476263E+08, -4.583582329120499E+08, -3.047835412874815E+07,
2459769.500000000, A.D. 2022-Jul-09 00:00:00.0000, -1.624531599247198E+08, -4.602678943998272E+08, -3.151164634903881E+07,
2459776.500000000, A.D. 2022-Jul-16 00:00:00.0000, -1.528784504354541E+08, -4.619865834159765E+08, -3.253186196971139E+07,
2459783.500000000, A.D. 2022-Jul-23 00:00:00.0000, -1.432398222049462E+08, -4.635119323542664E+08, -3.353846134200108E+07,
2459790.500000000, A.D. 2022-Jul-30 00:00:00.0000, -1.335407824437745E+08, -4.648416080571902E+08, -3.453090063457647E+07,
2459797.500000000, A.D. 2022-Aug-06 00:00:00.0000, -1.237849261747687E+08, -4.659733161426300E+08, -3.550863210300702E+07,
2459804.500000000, A.D. 2022-Aug-13 00:00:00.0000, -1.139759365831666E+08, -4.669048042361908E+08, -3.647110437944338E+07,
2459811.500000000, A.D. 2022-Aug-20 00:00:00.0000, -1.041175857536020E+08, -4.676338646152420E+08, -3.741776268025050E+07,
2459818.500000000, A.D. 2022-Aug-27 00:00:00.0000, -9.421373571924159E+07, -4.681583369932750E+08, -3.834804899776641E+07,
2459825.500000000, A.D. 2022-Sep-03 00:00:00.0000, -8.426833956796317E+07, -4.684761115568394E+08, -3.926140230857182E+07,
2459832.500000000, A.D. 2022-Sep-10 00:00:00.0000, -7.428544250759886E+07, -4.685851322327447E+08, -4.015725880529019E+07,
2459839.500000000, A.D. 2022-Sep-17 00:00:00.0000, -6.426918285239921E+07, -4.684834001890380E+08, -4.103505215561977E+07,
2459846.500000000, A.D. 2022-Sep-24 00:00:00.0000, -5.422379286160763E+07, -4.681689776225671E+08, -4.189421379928657E+07,
2459853.500000000, A.D. 2022-Oct-01 00:00:00.0000, -4.415359918136262E+07, -4.676399918571816E+08, -4.273417330782074E+07,
2459860.500000000, A.D. 2022-Oct-08 00:00:00.0000, -3.406302247358743E+07, -4.668946392317514E+08, -4.355435880296379E+07,
2459867.500000000, A.D. 2022-Oct-15 00:00:00.0000, -2.395657715430386E+07, -4.659311875792156E+08, -4.435419725134411E+07,
2459874.500000000, A.D. 2022-Oct-22 00:00:00.0000, -1.383887341277159E+07, -4.647479789796519E+08, -4.513311457399946E+07,
2459881.500000000, A.D. 2022-Oct-29 00:00:00.0000, -3.714619002252239E+06, -4.633434353797579E+08, -4.589053601299679E+07,
2459888.500000000, A.D. 2022-Nov-05 00:00:00.0000, 6.411381308571994E+06, -4.617160643375300E+08, -4.662588672505316E+07,
2459895.500000000, A.D. 2022-Nov-12 00:00:00.0000, 1.653422666993914E+07, -4.598644636244895E+08, -4.733859231964067E+07,
2459902.500000000, A.D. 2022-Nov-19 00:00:00.0000, 2.664892076294074E+07, -4.577873256377584E+08, -4.802807935464114E+07,
2459909.500000000, A.D. 2022-Nov-26 00:00:00.0000, 3.675037236252943E+07, -4.554834420160983E+08, -4.869377584693936E+07,
2459916.500000000, A.D. 2022-Dec-03 00:00:00.0000, 4.683339602903551E+07, -4.529517084664667E+08, -4.933511181469631E+07,
2459923.500000000, A.D. 2022-Dec-10 00:00:00.0000, 5.689271298588663E+07, -4.501911297754363E+08, -4.995151985422957E+07,
2459930.500000000, A.D. 2022-Dec-17 00:00:00.0000, 6.692295222191799E+07, -4.472008250223120E+08, -5.054243575599095E+07,
2459937.500000000, A.D. 2022-Dec-24 00:00:00.0000, 7.691865194274540E+07, -4.439800330518469E+08, -5.110729917540959E+07,
2459944.500000000, A.D. 2022-Dec-31 00:00:00.0000, 8.687426174426505E+07, -4.405281180921184E+08, -5.164555438324180E+07,
2459951.500000000, A.D. 2023-Jan-07 00:00:00.0000, 9.678414564556305E+07, -4.368445745485869E+08, -5.215665102876484E+07,
2459958.500000000, A.D. 2023-Jan-14 00:00:00.0000, 1.066425840274157E+08, -4.329290304694180E+08, -5.264004469528261E+07,
2459965.500000000, A.D. 2023-Jan-21 00:00:00.0000, 1.164437738443010E+08, -4.287812528435019E+08, -5.309519744814304E+07,
2459972.500000000, A.D. 2023-Jan-28 00:00:00.0000, 1.261818307912814E+08, -4.244011549137425E+08, -5.352157872756621E+07,
2459979.500000000, A.D. 2023-Feb-04 00:00:00.0000, 1.358507932306157E+08, -4.197888024645905E+08, -5.391866631951302E+07,
2459986.500000000, A.D. 2023-Feb-11 00:00:00.0000, 1.454446260956560E+08, -4.149444192625136E+08, -5.428594725526133E+07,
2459993.500000000, A.D. 2023-Feb-18 00:00:00.0000, 1.549572247211881E+08, -4.098683924556519E+08, -5.462291870041853E+07,
2460000.500000000, A.D. 2023-Feb-25 00:00:00.0000, 1.643824188750298E+08, -4.045612780759547E+08, -5.492908886974382E+07,
2460007.500000000, A.D. 2023-Mar-04 00:00:00.0000, 1.737139771043456E+08, -3.990238066049650E+08, -5.520397797443727E+07,
2460014.500000000, A.D. 2023-Mar-11 00:00:00.0000, 1.829456114356756E+08, -3.932568885809138E+08, -5.544711920301163E+07,
2460021.500000000, A.D. 2023-Mar-18 00:00:00.0000, 1.920709824854975E+08, -3.872616202729954E+08, -5.565805974240212E+07,
2460028.500000000, A.D. 2023-Mar-25 00:00:00.0000, 2.010837051939380E+08, -3.810392894454245E+08, -5.583636185997885E+07,
2460035.500000000, A.D. 2023-Apr-01 00:00:00.0000, 2.099773556143798E+08, -3.745913807930441E+08, -5.598160405130799E+07,
2460042.500000000, A.D. 2023-Apr-08 00:00:00.0000, 2.187454781495954E+08, -3.679195797980451E+08, -5.609338209491313E+07,
2460049.500000000, A.D. 2023-Apr-15 00:00:00.0000, 2.273815909005751E+08, -3.610257760861510E+08, -5.617130988739224E+07,
2460056.500000000, A.D. 2023-Apr-22 00:00:00.0000, 2.358791909385499E+08, -3.539120693032072E+08, -5.621502047113152E+07,
2460063.500000000, A.D. 2023-Apr-29 00:00:00.0000, 2.442317622360289E+08, -3.465807752276167E+08, -5.622416731825097E+07,
2460070.500000000, A.D. 2023-May-06 00:00:00.0000, 2.524327844956172E+08, -3.390344303063674E+08, -5.619842556062651E+07,
2460077.500000000, A.D. 2023-May-13 00:00:00.0000, 2.604757418959154E+08, -3.312757954762530E+08, -5.613749314599843E+07,
2460084.500000000, A.D. 2023-May-20 00:00:00.0000, 2.683541319820152E+08, -3.233078597283049E+08, -5.604109197807671E+07,
2460091.500000000, A.D. 2023-May-27 00:00:00.0000, 2.760614748848158E+08, -3.151338434111767E+08, -5.590896905685529E+07,
2460098.500000000, A.D. 2023-Jun-03 00:00:00.0000, 2.835913229145486E+08, -3.067572012135082E+08, -5.574089761810374E+07,
2460105.500000000, A.D. 2023-Jun-10 00:00:00.0000, 2.909372705367537E+08, -2.981816248046755E+08, -5.553667827082857E+07,
2460112.500000000, A.D. 2023-Jun-17 00:00:00.0000, 2.980929648009788E+08, -2.894110451590090E+08, -5.529614014091982E+07,
2460119.500000000, A.D. 2023-Jun-24 00:00:00.0000, 3.050521165212466E+08, -2.804496344727638E+08, -5.501914204073688E+07,
2460126.500000000, A.D. 2023-Jul-01 00:00:00.0000, 3.118085124388722E+08, -2.713018068126193E+08, -5.470557361518794E+07,
2460133.500000000, A.D. 2023-Jul-08 00:00:00.0000, 3.183560266676878E+08, -2.619722166435053E+08, -5.435535623854023E+07,
2460140.500000000, A.D. 2023-Jul-15 00:00:00.0000, 3.246886301134172E+08, -2.524657580359702E+08, -5.396844377056928E+07,
$$EOE